ORBCOMM FM37            
1 33064U 08031E   25030.44835888  .00003585  00000+0  50993-3 0  9995
2 33064  48.4392 278.0551 0005894 144.2980  26.0613 14.78837342893656
ORBCOMM FM40            
1 33065U 08031F   25030.60151562  .00003882  00000+0  52493-3 0  9991
2 33065  48.4402 263.5462 0007421 156.3738 237.1682 14.80819686894209
VESSELSAT 1             
1 37840U 11058C   25030.58413331  .00000499  00000+0  12755-3 0  9999
2 37840  19.9598 206.4988 0013726 112.8659 247.3195 14.11301709686843
ORBCOMM FM109           
1 40086U 14040A   25030.78806871  .00001930  00000+0  45497-3 0  9996
2 40086  47.0036 305.0281 0001407  54.1516 305.9500 14.57750002561132
ORBCOMM FM107           
1 40087U 14040B   25030.47995465  .00001739  00000+0  41299-3 0  9994
2 40087  47.0063 307.4923 0001441 355.8816   4.2057 14.57811267561041
ORBCOMM FM106           
1 40088U 14040C   25030.58928755  .00002953  00000+0  53137-3 0  9998
2 40088  47.0591 140.0092 0016777 152.0403 208.1392 14.68804051563249
ORBCOMM FM111           
1 40089U 14040D   25030.63344266  .00005879  00000+0  70048-3 0  9994
2 40089  47.0031   8.2122 0030987 255.9813 103.7638 14.84970090569777
ORBCOMM FM104           
1 40090U 14040E   25030.79949285  .00001766  00000+0  43248-3 0  9998
2 40090  47.0068 337.9620 0017209 297.6168  62.2969 14.56263775560694
